STARLINK-32642          
1 62211U 24229V   26068.55657929  .00029089  00000+0  10623-2 0  9992
2 62211  42.9996 271.2385 0001618 234.8632 125.2068 15.27582698 70548
LIME                    
1 62648U 25009AR  26068.73906781  .00013254  00000+0  47723-3 0  9995
2 62648  97.3985 151.4831 0001635  35.9029 324.2320 15.28703313 63766
